{"type":"FeatureCollection","features":[{"type":"Feature","geometry":{"type":"Polygon","coordinates":[[[-100.83,24.55],[-100.95,24.42],[-101.1,24.32],[-101.2,24.17],[-101.32,24.04],[-101.33,23.88],[-101.56,23.75],[-101.72,23.55],[-101.95,23.44],[-102.12,23.33],[-102.28,23.29],[-102.23,23.09],[-102.29,22.89],[-102.11,22.73],[-101.9,22.62],[-101.78,22.47],[-101.56,22.56],[-101.28,22.6],[-101.4,22.31],[-101.36,22.13],[-101.46,21.89],[-101.55,21.85],[-101.93,22.05],[-102.03,22.16],[-102.22,22.32],[-102.35,22.36],[-102.56,22.25],[-102.67,22.14],[-102.82,21.92],[-102.84,21.74],[-102.75,21.54],[-102.7,21.32],[-102.93,21.16],[-103.09,21.06],[-103.2,21.03],[-103.32,21.02],[-103.47,21.06],[-103.63,21.13],[-103.76,21.22],[-103.55,21.36],[-103.67,21.38],[-103.63,21.49],[-103.56,21.66],[-103.49,21.77],[-103.25,21.93],[-103.12,22.07],[-103.2,22.22],[-103.2,22.32],[-103.38,22.25],[-103.36,22.16],[-103.5,22.04],[-103.68,22.04],[-103.6,22.24],[-103.57,22.43],[-103.82,22.47],[-103.85,22.19],[-103.93,22.17],[-103.91,22.45],[-103.78,22.63],[-103.96,22.65],[-104.0,22.48],[-104.08,22.28],[-104.07,22.44],[-104.21,22.36],[-104.23,22.29],[-104.34,22.26],[-104.36,22.4],[-104.26,22.59],[-104.13,22.78],[-104.12,23.09],[-104.03,23.34],[-103.88,23.56],[-103.86,23.77],[-103.86,24.0],[-103.81,24.08],[-103.61,24.28],[-103.43,24.44],[-103.18,24.41],[-103.01,24.41],[-102.85,24.41],[-102.56,24.42],[-102.57,24.6],[-102.61,24.73],[-102.63,24.87],[-102.73,25.01],[-102.66,25.11],[-102.47,25.15],[-102.13,25.12],[-101.85,24.96],[-101.66,24.86],[-101.61,24.72],[-101.39,24.78],[-101.21,24.71],[-101.1,24.55],[-100.92,24.57],[-100.83,24.55]]]},"properties":{"name":"Zacatecas"},"id":"MX-ZAC"},{"type":"Feature","geometry":{"type":"Polygon","coordinates":[[[-87.54,21.49],[-87.57,21.23],[-87.56,21.06],[-87.6,20.83],[-87.69,20.63],[-87.87,20.51],[-88.12,20.43],[-88.26,20.37],[-88.28,20.25],[-88.37,20.3],[-88.48,20.18],[-88.69,20.09],[-88.81,19.99],[-88.9,19.97],[-89.09,19.91],[-89.25,19.84],[-89.37,19.78],[-89.44,19.74],[-89.59,19.93],[-89.72,20.08],[-89.84,20.22],[-89.97,20.36],[-90.02,20.47],[-90.12,20.44],[-90.21,20.49],[-90.39,20.53],[-90.4,20.86],[-90.16,21.12],[-89.91,21.22],[-89.71,21.28],[-89.5,21.32],[-89.1,21.36],[-88.84,21.4],[-88.66,21.47],[-88.53,21.53],[-88.31,21.55],[-88.13,21.62],[-87.92,21.56],[-87.78,21.51],[-87.61,21.48],[-87.54,21.49]]]},"properties":{"name":"Yucat\u00e1n"},"id":"MX-YUC"},{"type":"Feature","geometry":{"type":"MultiPolygon","coordinates":[[[[-97.4,21.48],[-97.43,21.43],[-97.43,21.4],[-97.45,21.37],[-97.47,21.39],[-97.47,21.42],[-97.45,21.45],[-97.4,21.48]]],[[[-97.79,22.25],[-97.77,22.05],[-97.7,21.88],[-97.7,21.75],[-97.64,21.59],[-97.57,21.46],[-97.5,21.4],[-97.42,21.26],[-97.33,21.01],[-97.22,20.81],[-97.18,20.66],[-96.95,20.41],[-96.72,20.17],[-96.45,19.85],[-96.4,19.72],[-96.38,19.56],[-96.31,19.37],[-96.18,19.25],[-96.09,19.15],[-96.04,19.06],[-95.93,18.89],[-95.76,18.79],[-95.84,18.82],[-95.85,18.74],[-95.78,18.75],[-95.67,18.74],[-95.31,18.71],[-95.18,18.69],[-95.05,18.58],[-94.87,18.55],[-94.77,18.45],[-94.68,18.35],[-94.6,18.2],[-94.47,18.15],[-94.06,18.23],[-94.1,18.14],[-94.07,17.98],[-94.06,17.84],[-93.94,17.75],[-93.81,17.7],[-93.69,17.49],[-93.67,17.36],[-93.7,17.29],[-93.87,17.15],[-95.02,17.22],[-95.03,17.33],[-95.22,17.51],[-95.23,17.68],[-95.34,17.7],[-95.61,17.58],[-95.85,17.57],[-95.93,17.78],[-95.85,17.98],[-95.88,18.17],[-96.03,18.2],[-96.18,18.19],[-96.24,18.24],[-96.39,18.33],[-96.49,18.44],[-96.54,18.59],[-96.59,18.55],[-96.65,18.44],[-96.83,18.54],[-96.98,18.48],[-97.04,18.62],[-97.23,18.69],[-97.17,18.94],[-97.18,19.23],[-96.96,19.3],[-97.13,19.38],[-97.32,19.46],[-97.35,19.62],[-97.25,19.79],[-97.21,19.96],[-97.09,20.19],[-97.34,20.27],[-97.5,20.14],[-97.6,20.21],[-97.71,20.41],[-97.6,20.45],[-97.56,20.59],[-97.67,20.73],[-97.69,20.78],[-97.77,20.84],[-97.87,20.75],[-97.96,20.63],[-98.11,20.56],[-98.29,20.43],[-98.46,20.38],[-98.47,20.6],[-98.42,20.79],[-98.2,20.83],[-98.18,20.98],[-98.19,21.16],[-98.29,21.22],[-98.43,21.21],[-98.49,21.38],[-98.54,21.54],[-98.63,21.67],[-98.53,21.72],[-98.45,21.78],[-98.55,21.92],[-98.47,21.97],[-98.4,22.12],[-98.36,22.18],[-98.58,22.33],[-98.67,22.39],[-98.43,22.41],[-98.29,22.44],[-98.16,22.41],[-98.0,22.34],[-97.85,22.2],[-97.79,22.25]]],[[[-97.62,21.84],[-97.38,21.61],[-97.35,21.45],[-97.44,21.28],[-97.42,21.43],[-97.41,21.56],[-97.55,21.7],[-97.62,21.84]]]]},"properties":{"name":"Veracruz"},"id":"MX-VER"},{"type":"Feature","geometry":{"type":"Polygon","coordinates":[[[-98.58,19.47],[-98.67,19.55],[-98.47,19.61],[-98.29,19.66],[-98.17,19.7],[-98.0,19.76],[-97.85,19.64],[-97.76,19.52],[-97.64,19.48],[-97.55,19.4],[-97.7,19.32],[-97.84,19.21],[-98,19.2],[-98.22,19.19],[-98.39,19.38],[-98.53,19.48],[-98.58,19.47]]]},"properties":{"name":"Tlaxcala"},"id":"MX-TLA"},{"type":"Feature","geometry":{"type":"MultiPolygon","coordinates":[[[[-97.72,24.28],[-97.71,24.24],[-97.73,24.11],[-97.73,24.18],[-97.73,24.24],[-97.72,24.28]]],[[[-97.45,25.24],[-97.54,24.98],[-97.51,25.12],[-97.45,25.24]]],[[[-97.79,22.25],[-97.95,22.3],[-98.12,22.39],[-98.25,22.44],[-98.38,22.37],[-98.64,22.41],[-98.84,22.36],[-98.94,22.38],[-99.22,22.41],[-99.34,22.62],[-99.52,22.74],[-99.58,22.67],[-99.8,22.71],[-100.02,22.82],[-100.03,23.1],[-100.12,23.25],[-100.06,23.36],[-99.96,23.4],[-99.9,23.61],[-99.82,23.75],[-99.58,23.77],[-99.46,23.82],[-99.55,23.93],[-99.63,24.09],[-99.67,24.24],[-99.68,24.47],[-99.76,24.55],[-99.6,24.64],[-99.49,24.75],[-99.34,24.81],[-99.25,24.82],[-99.14,24.96],[-99.18,25.07],[-99.05,25.16],[-98.9,25.14],[-98.72,25.25],[-98.55,25.35],[-98.42,25.46],[-98.55,25.56],[-98.55,25.72],[-98.55,25.93],[-98.71,26.02],[-98.89,25.96],[-99.07,26.08],[-99.15,26.15],[-99.17,26.25],[-99.3,26.28],[-99.45,26.46],[-99.55,26.56],[-99.65,26.63],[-99.67,26.78],[-99.77,26.87],[-99.75,27.0],[-99.71,27.11],[-99.75,27.32],[-99.76,27.42],[-99.94,27.48],[-99.87,27.57],[-99.75,27.66],[-99.66,27.63],[-99.57,27.6],[-99.53,27.5],[-99.49,27.41],[-99.5,27.27],[-99.45,27.22],[-99.44,27.11],[-99.41,27.02],[-99.33,26.92],[-99.26,26.81],[-99.21,26.69],[-99.16,26.57],[-99.11,26.43],[-98.98,26.4],[-98.9,26.37],[-98.77,26.32],[-98.68,26.25],[-98.54,26.24],[-98.41,26.18],[-98.27,26.09],[-98.18,26.07],[-98.07,26.04],[-97.97,26.05],[-97.8,26.04],[-97.63,26.0],[-97.52,25.89],[-97.4,25.84],[-97.35,25.93],[-97.21,25.96],[-97.14,25.89],[-97.25,25.54],[-97.42,25.24],[-97.41,25.38],[-97.45,25.44],[-97.54,25.43],[-97.56,25.34],[-97.57,25.33],[-97.69,25.36],[-97.76,25.26],[-97.67,25.18],[-97.72,25.03],[-97.69,24.94],[-97.73,24.86],[-97.72,24.79],[-97.71,24.64],[-97.77,24.51],[-97.84,24.5],[-97.78,24.42],[-97.75,24.27],[-97.77,24.09],[-97.78,23.95],[-97.75,23.76],[-97.74,23.73],[-97.77,23.41],[-97.77,22.87],[-97.82,22.77],[-97.9,22.6],[-97.87,22.47],[-97.81,22.3],[-97.79,22.25]]]]},"properties":{"name":"Tamaulipas"},"id":"MX-TAM"},{"type":"Feature","geometry":{"type":"MultiPolygon","coordinates":[[[[-92.47,18.65],[-92.34,18.44],[-92.19,18.35],[-92.18,18.24],[-92.09,18.1],[-91.91,17.95],[-91.75,17.92],[-91.58,17.95],[-91.56,18.07],[-91.33,18.04],[-91.22,17.96],[-91.09,17.91],[-90.98,17.64],[-91.39,17.29],[-91.46,17.42],[-91.64,17.46],[-91.63,17.61],[-91.76,17.74],[-91.81,17.87],[-91.95,17.86],[-92.03,17.83],[-92.2,17.82],[-92.29,17.69],[-92.5,17.52],[-92.76,17.36],[-92.83,17.44],[-92.97,17.51],[-93.02,17.64],[-93.03,17.74],[-93.05,17.86],[-93.18,17.94],[-93.31,17.95],[-93.37,17.83],[-93.45,17.59],[-93.59,17.35],[-93.69,17.37],[-93.69,17.54],[-93.86,17.71],[-93.96,17.8],[-94.07,17.87],[-94.1,18.04],[-94.12,18.16],[-94.0,18.25],[-93.83,18.25],[-93.73,18.33],[-93.59,18.33],[-93.44,18.43],[-93.31,18.44],[-93.17,18.37],[-93.14,18.43],[-92.89,18.44],[-92.7,18.6],[-92.47,18.65]]],[[[-93.59,18.39],[-93.75,18.33],[-93.6,18.39],[-93.59,18.39]]]]},"properties":{"name":"Tabasco"},"id":"MX-TAB"},{"type":"Feature","geometry":{"type":"MultiPolygon","coordinates":[[[[-112.28,29.23],[-112.24,29.1],[-112.22,28.94],[-112.31,28.75],[-112.46,28.8],[-112.49,28.95],[-112.49,29.07],[-112.4,29.19],[-112.28,29.23]]],[[[-110.6,27.37],[-110.58,27.34],[-110.57,27.31],[-110.53,27.3],[-110.54,27.29],[-110.59,27.3],[-110.6,27.32],[-110.6,27.37]]],[[[-109.18,26.32],[-109.22,26.32],[-109.19,26.34],[-109.18,26.32]]],[[[-108.77,31.33],[-108.75,31.19],[-108.69,30.99],[-108.75,30.9],[-108.65,30.81],[-108.6,30.7],[-108.58,30.56],[-108.53,30.4],[-108.55,30.23],[-108.5,30.08],[-108.55,29.81],[-108.49,29.72],[-108.46,29.5],[-108.5,29.3],[-108.55,29.18],[-108.62,29.04],[-108.61,28.94],[-108.62,28.78],[-108.64,28.6],[-108.64,28.47],[-108.57,28.36],[-108.73,28.28],[-108.99,28.28],[-108.96,28.15],[-108.9,28.02],[-108.82,27.8],[-108.69,27.69],[-108.56,27.42],[-108.61,27.24],[-108.62,27.11],[-108.48,27.02],[-108.33,27.0],[-108.47,26.83],[-108.53,26.72],[-108.68,26.56],[-108.8,26.43],[-109.05,26.3],[-109.08,26.37],[-109.17,26.43],[-109.24,26.45],[-109.36,26.6],[-109.47,26.72],[-109.56,26.72],[-109.68,26.68],[-109.85,26.83],[-109.89,26.98],[-109.99,27.12],[-110.25,27.14],[-110.48,27.29],[-110.5,27.39],[-110.59,27.54],[-110.62,27.65],[-110.6,27.72],[-110.6,27.81],[-110.58,27.88],[-110.74,27.91],[-110.86,27.93],[-110.92,27.87],[-111.08,27.94],[-111.21,28.04],[-111.33,28.16],[-111.46,28.36],[-111.71,28.46],[-111.8,28.63],[-111.92,28.77],[-111.85,28.79],[-112.03,28.86],[-112.12,28.96],[-112.17,29.03],[-112.2,29.18],[-112.26,29.33],[-112.42,29.38],[-112.43,29.52],[-112.54,29.69],[-112.65,29.84],[-112.75,29.92],[-112.77,30.22],[-112.85,30.36],[-112.99,30.53],[-113.1,30.75],[-113.09,30.96],[-113.08,31.14],[-113.22,31.26],[-113.55,31.3],[-113.64,31.43],[-113.8,31.56],[-113.92,31.6],[-113.99,31.53],[-114.15,31.49],[-114.33,31.58],[-114.46,31.67],[-114.59,31.76],[-114.75,31.81],[-114.9,31.89],[-115.03,31.95],[-115.0,32.11],[-115.04,32.28],[-114.96,32.41],[-114.87,32.49],[-113.96,32.23],[-111.62,31.51],[-109.76,31.33],[-108.77,31.33]]],[[[-114.64,31.76],[-114.6,31.75],[-114.61,31.73],[-114.66,31.75],[-114.64,31.76]]],[[[-114.79,31.82],[-114.66,31.72],[-114.71,31.68],[-114.8,31.81],[-114.79,31.82]]]]},"properties":{"name":"Sonora"},"id":"MX-SON"},{"type":"Feature","geometry":{"type":"MultiPolygon","coordinates":[[[[-108.35,25.21],[-108.3,25.17],[-108.28,25.16],[-108.27,25.14],[-108.34,25.17],[-108.35,25.21]]],[[[-108.14,25.05],[-108.06,24.96],[-108.05,24.82],[-108.14,24.94],[-108.14,25.05]]],[[[-108.33,25.13],[-108.18,24.97],[-108.12,24.86],[-108.33,25.13]]],[[[-109.22,26.32],[-109.18,26.26],[-109.13,26.29],[-109.15,26.42],[-109.08,26.34],[-109.02,26.32],[-108.79,26.47],[-108.65,26.58],[-108.46,26.74],[-108.42,26.88],[-108.33,27.03],[-108.11,27.03],[-108.08,26.91],[-108.0,26.76],[-107.99,26.62],[-107.84,26.4],[-107.76,26.17],[-107.48,26.12],[-107.27,25.91],[-107.16,25.7],[-107.17,25.62],[-107.22,25.46],[-107.27,25.12],[-107.13,24.92],[-107.05,24.84],[-106.85,24.61],[-106.79,24.54],[-106.71,24.32],[-106.61,24.31],[-106.47,24.38],[-106.26,24.39],[-106.12,24.29],[-106.05,24.17],[-105.98,23.93],[-105.88,23.74],[-105.77,23.55],[-105.73,23.36],[-105.64,23.21],[-105.54,23.11],[-105.43,23.02],[-105.49,22.86],[-105.47,22.7],[-105.44,22.59],[-105.58,22.53],[-105.7,22.65],[-105.71,22.73],[-105.71,22.64],[-105.69,22.49],[-105.76,22.55],[-105.97,22.8],[-106.33,23.13],[-106.43,23.2],[-106.49,23.3],[-106.63,23.48],[-106.71,23.58],[-106.79,23.67],[-106.88,23.8],[-107.19,24.1],[-107.19,24.13],[-107.36,24.23],[-107.62,24.39],[-107.77,24.49],[-107.64,24.43],[-107.54,24.37],[-107.49,24.45],[-107.61,24.5],[-107.68,24.49],[-107.76,24.53],[-107.92,24.64],[-108.01,24.72],[-108.03,24.77],[-108.01,24.86],[-108.0,24.94],[-108.05,25.06],[-108.13,25.1],[-108.25,25.2],[-108.36,25.26],[-108.44,25.24],[-108.68,25.36],[-108.72,25.39],[-108.77,25.49],[-108.84,25.56],[-108.89,25.5],[-109.01,25.47],[-109.12,25.54],[-108.98,25.58],[-108.94,25.67],[-109.06,25.58],[-109.15,25.59],[-109.25,25.67],[-109.33,25.65],[-109.31,25.73],[-109.4,25.76],[-109.43,25.93],[-109.35,26.13],[-109.25,26.32],[-109.27,26.15],[-109.22,26.32]]]]},"properties":{"name":"Sinaloa"},"id":"MX-SIN"},{"type":"Feature","geometry":{"type":"Polygon","coordinates":[[[-100.12,23.25],[-100.03,23.1],[-100.02,22.82],[-99.8,22.71],[-99.58,22.67],[-99.52,22.74],[-99.34,22.62],[-99.22,22.41],[-98.94,22.38],[-98.84,22.36],[-98.68,22.33],[-98.38,22.25],[-98.35,22.11],[-98.46,22.0],[-98.57,21.94],[-98.46,21.8],[-98.52,21.75],[-98.62,21.7],[-98.58,21.54],[-98.6,21.41],[-98.72,21.23],[-98.91,21.23],[-99.04,21.29],[-99.17,21.42],[-99.3,21.55],[-99.42,21.46],[-99.59,21.45],[-99.7,21.58],[-99.78,21.55],[-99.89,21.47],[-100.07,21.47],[-100.16,21.57],[-100.3,21.65],[-100.47,21.69],[-100.51,21.56],[-100.79,21.59],[-101.03,21.73],[-101.26,21.79],[-101.48,21.86],[-101.37,22.07],[-101.42,22.27],[-101.27,22.58],[-101.44,22.67],[-101.72,22.47],[-101.86,22.55],[-102.07,22.71],[-102.28,22.84],[-102.24,23.05],[-102.25,23.26],[-102.2,23.35],[-101.98,23.4],[-101.74,23.52],[-101.58,23.74],[-101.34,23.85],[-101.34,24.01],[-101.28,24.15],[-101.11,24.27],[-100.98,24.36],[-100.85,24.54],[-100.69,24.44],[-100.73,24.31],[-100.65,24.16],[-100.52,23.92],[-100.48,23.72],[-100.53,23.51],[-100.5,23.31],[-100.37,23.17],[-100.23,23.27],[-100.12,23.25]]]},"properties":{"name":"San Luis Potos\u00ed"},"id":"MX-SLP"},{"type":"Feature","geometry":{"type":"MultiPolygon","coordinates":[[[[-86.73,20.59],[-86.82,20.44],[-87.0,20.28],[-86.93,20.55],[-86.77,20.55],[-86.73,20.59]]],[[[-87.12,21.59],[-87.21,21.52],[-87.31,21.55],[-87.12,21.59]]],[[[-89.15,17.94],[-89.04,18.19],[-89.05,18.46],[-89.06,18.58],[-89.08,18.88],[-89.02,19.08],[-89.03,19.28],[-89.3,19.53],[-89.38,19.73],[-89.33,19.83],[-89.15,19.89],[-88.91,19.95],[-88.82,20.01],[-88.71,20.08],[-88.52,20.16],[-88.4,20.23],[-88.29,20.3],[-88.27,20.34],[-88.15,20.46],[-87.92,20.48],[-87.75,20.61],[-87.6,20.78],[-87.53,20.99],[-87.57,21.18],[-87.53,21.46],[-87.46,21.46],[-87.31,21.44],[-87.13,21.46],[-87.1,21.58],[-86.99,21.53],[-86.91,21.42],[-86.86,21.28],[-86.79,21.34],[-86.79,21.34],[-86.81,21.19],[-86.78,21.03],[-86.86,20.89],[-86.96,20.75],[-87.05,20.65],[-87.28,20.45],[-87.42,20.23],[-87.45,19.93],[-87.5,19.81],[-87.62,19.72],[-87.74,19.64],[-87.7,19.55],[-87.63,19.54],[-87.5,19.59],[-87.43,19.5],[-87.54,19.4],[-87.66,19.31],[-87.62,19.2],[-87.54,19.31],[-87.49,19.26],[-87.55,19.15],[-87.64,18.86],[-87.71,18.71],[-87.76,18.42],[-87.83,18.3],[-87.9,18.25],[-87.88,18.35],[-87.93,18.43],[-88.08,18.51],[-88.02,18.62],[-88.02,18.79],[-88.08,18.83],[-88.17,18.69],[-88.23,18.59],[-88.32,18.5],[-88.48,18.49],[-88.55,18.35],[-88.66,18.17],[-88.74,18.05],[-88.85,17.93],[-88.94,17.96],[-89.09,17.99],[-89.15,17.94]]]]},"properties":{"name":"Quintana Roo"},"id":"MX-ROO"},{"type":"Feature","geometry":{"type":"Polygon","coordinates":[[[-99.04,21.29],[-99.09,21.18],[-99.26,21.13],[-99.38,21.09],[-99.4,20.97],[-99.49,20.86],[-99.51,20.71],[-99.61,20.62],[-99.76,20.57],[-99.85,20.33],[-99.91,20.23],[-99.96,20.2],[-100.04,20.05],[-100.26,20.16],[-100.32,20.28],[-100.47,20.41],[-100.54,20.65],[-100.56,20.85],[-100.39,20.92],[-100.18,20.92],[-100.11,20.96],[-100.02,21.18],[-99.87,21.16],[-99.72,21.25],[-99.81,21.35],[-99.76,21.5],[-99.74,21.55],[-99.66,21.56],[-99.56,21.44],[-99.39,21.45],[-99.27,21.56],[-99.15,21.4],[-99.04,21.29]]]},"properties":{"name":"Quer\u00e9taro"},"id":"MX-QUE"},{"type":"Feature","geometry":{"type":"Polygon","coordinates":[[[-96.65,18.43],[-96.76,18.27],[-96.99,18.14],[-97.23,18.15],[-97.39,17.96],[-97.48,18.16],[-97.51,18.29],[-97.6,18.35],[-97.74,18.16],[-97.63,18.05],[-97.82,18.02],[-97.92,18.03],[-98.15,17.99],[-98.38,18.02],[-98.49,17.99],[-98.59,18.02],[-98.69,18.12],[-98.82,18.15],[-98.96,18.28],[-98.88,18.41],[-98.74,18.53],[-98.64,18.65],[-98.61,18.89],[-98.56,19.24],[-98.57,19.4],[-98.53,19.48],[-98.39,19.38],[-98.22,19.19],[-98,19.2],[-97.84,19.21],[-97.7,19.32],[-97.55,19.4],[-97.64,19.48],[-97.76,19.52],[-97.85,19.64],[-98.0,19.76],[-98.17,19.7],[-98.16,19.95],[-98.1,20.18],[-98.18,20.24],[-98.16,20.32],[-97.94,20.51],[-97.91,20.72],[-97.82,20.85],[-97.7,20.81],[-97.7,20.75],[-97.65,20.63],[-97.57,20.49],[-97.71,20.46],[-97.66,20.2],[-97.52,20.13],[-97.38,20.28],[-97.19,20.22],[-97.18,20.06],[-97.24,19.83],[-97.34,19.65],[-97.3,19.49],[-97.17,19.38],[-96.98,19.32],[-97.12,19.23],[-97.16,18.98],[-97.24,18.74],[-97.06,18.63],[-97.0,18.51],[-96.88,18.51],[-96.69,18.49],[-96.65,18.43]]]},"properties":{"name":"Puebla"},"id":"MX-PUE"},{"type":"Feature","geometry":{"type":"Polygon","coordinates":[[[-93.87,17.15],[-93.92,17.0],[-94.06,16.77],[-94.16,16.49],[-94.12,16.22],[-94.24,16.21],[-94.34,16.24],[-94.42,16.24],[-94.34,16.17],[-94.16,16.13],[-94.11,16.05],[-94.48,16.18],[-94.66,16.25],[-94.62,16.35],[-94.78,16.3],[-94.77,16.33],[-94.84,16.41],[-94.93,16.42],[-95.03,16.33],[-95.08,16.26],[-94.84,16.23],[-95.15,16.19],[-95.23,16.16],[-95.33,16.09],[-95.42,16.0],[-95.5,15.97],[-95.61,15.94],[-95.76,15.9],[-95.89,15.84],[-96.03,15.79],[-96.17,15.71],[-96.44,15.69],[-96.62,15.68],[-96.92,15.78],[-97.06,15.86],[-97.27,15.94],[-97.49,15.96],[-97.66,15.98],[-97.93,16.08],[-98.22,16.23],[-98.56,16.32],[-98.36,16.5],[-98.19,16.67],[-98.09,16.76],[-98.04,16.96],[-98.11,17.09],[-98.24,17.19],[-98.22,17.47],[-98.32,17.76],[-98.15,17.99],[-97.92,18.03],[-97.82,18.02],[-97.63,18.05],[-97.74,18.16],[-97.6,18.35],[-97.51,18.29],[-97.48,18.16],[-97.39,17.96],[-97.23,18.15],[-96.99,18.14],[-96.76,18.27],[-96.65,18.43],[-96.61,18.58],[-96.5,18.58],[-96.49,18.42],[-96.37,18.33],[-96.21,18.24],[-96.14,18.2],[-95.98,18.21],[-95.87,18.15],[-95.88,17.94],[-95.94,17.74],[-95.77,17.55],[-95.49,17.66],[-95.3,17.74],[-95.29,17.65],[-95.2,17.48],[-95.03,17.29],[-94.78,17.2],[-93.87,17.15]]]},"properties":{"name":"Oaxaca"},"id":"MX-OAX"},{"type":"Feature","geometry":{"type":"Polygon","coordinates":[[[-99.73,27.67],[-99.84,27.59],[-99.93,27.51],[-99.77,27.46],[-99.75,27.34],[-99.71,27.16],[-99.72,27.03],[-99.78,26.87],[-99.65,26.82],[-99.68,26.66],[-99.57,26.58],[-99.46,26.53],[-99.3,26.32],[-99.2,26.25],[-99.15,26.17],[-99.14,26.1],[-98.93,25.98],[-98.75,26.01],[-98.58,25.96],[-98.53,25.75],[-98.53,25.59],[-98.41,25.5],[-98.5,25.37],[-98.67,25.25],[-98.89,25.18],[-99.03,25.12],[-99.13,25.09],[-99.17,24.98],[-99.23,24.88],[-99.32,24.85],[-99.45,24.73],[-99.55,24.66],[-99.75,24.57],[-99.69,24.48],[-99.65,24.3],[-99.66,24.12],[-99.56,23.97],[-99.48,23.86],[-99.57,23.79],[-99.78,23.76],[-99.89,23.69],[-99.97,23.47],[-100.03,23.34],[-100.1,23.28],[-100.33,23.22],[-100.46,23.23],[-100.51,23.42],[-100.5,23.62],[-100.53,23.8],[-100.55,24.05],[-100.66,24.23],[-100.71,24.39],[-100.79,24.45],[-100.82,24.62],[-100.82,24.77],[-100.88,24.9],[-100.78,24.98],[-100.77,25.16],[-100.64,25.29],[-100.45,25.21],[-100.29,25.21],[-100.31,25.33],[-100.47,25.38],[-100.61,25.52],[-100.73,25.65],[-100.86,25.84],[-100.86,25.97],[-100.96,26.12],[-101.25,26.41],[-101.12,26.6],[-100.86,26.7],[-100.68,26.75],[-100.59,26.89],[-100.6,27.07],[-100.71,27.13],[-100.88,27.09],[-100.81,27.31],[-100.63,27.37],[-100.53,27.46],[-100.42,27.67],[-100.18,27.68],[-99.94,27.71],[-99.81,27.77],[-99.73,27.67]]]},"properties":{"name":"Nuevo Le\u00f3n"},"id":"MX-NLE"},{"type":"Feature","geometry":{"type":"MultiPolygon","coordinates":[[[[-105.68,22.57],[-105.65,22.45],[-105.62,22.24],[-105.66,22.29],[-105.7,22.47],[-105.68,22.57]]],[[[-106.67,21.78],[-106.66,21.74],[-106.68,21.73],[-106.69,21.76],[-106.67,21.78]]],[[[-106.23,21.34],[-106.23,21.31],[-106.26,21.29],[-106.28,21.32],[-106.26,21.34],[-106.23,21.34]]],[[[-106.66,21.7],[-106.54,21.63],[-106.6,21.58],[-106.66,21.7]]],[[[-104.36,22.4],[-104.34,22.26],[-104.34,22.1],[-104.32,21.94],[-104.15,21.89],[-104.08,21.72],[-103.92,21.68],[-103.81,21.5],[-103.83,21.26],[-104.03,21.16],[-104.22,21.14],[-104.27,20.9],[-104.34,20.79],[-104.27,20.65],[-104.36,20.71],[-104.49,20.81],[-104.69,20.92],[-104.85,21.0],[-105.02,20.9],[-105.17,20.85],[-105.3,20.69],[-105.4,20.73],[-105.49,20.8],[-105.42,20.9],[-105.31,21.04],[-105.24,21.12],[-105.22,21.24],[-105.19,21.45],[-105.33,21.55],[-105.51,21.76],[-105.65,22.01],[-105.62,22.18],[-105.51,22.09],[-105.48,22.14],[-105.61,22.21],[-105.65,22.42],[-105.66,22.52],[-105.58,22.53],[-105.44,22.59],[-105.47,22.7],[-105.49,22.86],[-105.43,23.02],[-105.31,22.95],[-105.16,22.97],[-105.0,22.92],[-104.9,22.81],[-105.04,22.66],[-104.96,22.47],[-104.85,22.59],[-104.73,22.51],[-104.56,22.34],[-104.48,22.36],[-104.36,22.4]]],[[[-106.44,21.5],[-106.38,21.45],[-106.49,21.47],[-106.44,21.5]]]]},"properties":{"name":"Nayarit"},"id":"MX-NAY"},{"type":"Feature","geometry":{"type":"Polygon","coordinates":[[[-98.87,19.07],[-98.74,18.97],[-98.58,19.02],[-98.63,18.8],[-98.62,18.51],[-98.76,18.53],[-98.96,18.36],[-99.28,18.46],[-99.41,18.58],[-99.44,18.63],[-99.37,18.82],[-99.26,18.99],[-99.06,19.07],[-98.87,19.07]]]},"properties":{"name":"Morelos"},"id":"MX-MOR"},{"type":"Feature","geometry":{"type":"Polygon","coordinates":[[[-100.36,20.3],[-100.25,20.19],[-100.13,19.97],[-100.13,19.86],[-100.23,19.72],[-100.23,19.63],[-100.22,19.41],[-100.28,19.28],[-100.4,19.07],[-100.54,18.93],[-100.69,18.78],[-100.77,18.81],[-100.74,18.61],[-100.62,18.35],[-100.72,18.34],[-100.88,18.44],[-100.99,18.46],[-101.17,18.51],[-101.35,18.51],[-101.52,18.48],[-101.73,18.57],[-101.81,18.54],[-101.91,18.49],[-101.87,18.3],[-101.98,18.23],[-102.15,18.19],[-102.18,17.99],[-102.19,17.91],[-102.47,18.02],[-102.72,18.07],[-103.12,18.19],[-103.3,18.25],[-103.49,18.33],[-103.56,18.45],[-103.68,18.62],[-103.66,18.79],[-103.63,18.89],[-103.49,18.96],[-103.36,18.96],[-103.2,18.96],[-103.04,19.07],[-102.83,19.24],[-102.71,19.27],[-102.6,19.42],[-102.77,19.48],[-102.78,19.63],[-102.77,19.79],[-102.89,19.92],[-103.05,19.93],[-103.06,20.07],[-103.01,20.14],[-102.85,20.09],[-102.74,20.15],[-102.62,20.25],[-102.5,20.31],[-102.33,20.34],[-102.12,20.37],[-102.0,20.35],[-101.97,20.25],[-101.86,20.21],[-101.72,20.19],[-101.53,20.31],[-101.38,20.24],[-101.44,20.18],[-101.41,20.02],[-101.18,20.01],[-101.03,20.07],[-100.88,19.95],[-100.6,19.96],[-100.53,19.92],[-100.35,20.06],[-100.35,20.21],[-100.36,20.3]]]},"properties":{"name":"Michoac\u00e1n"},"id":"MX-MIC"},{"type":"Feature","geometry":{"type":"Polygon","coordinates":[[[-98.67,19.55],[-98.58,19.47],[-98.59,19.33],[-98.55,19.03],[-98.69,18.94],[-98.83,19.04],[-98.85,19.17],[-98.91,19.29],[-99.01,19.41],[-99.1,19.53],[-99.23,19.34],[-99.32,19.23],[-99.22,19.06],[-99.34,18.85],[-99.46,18.66],[-99.61,18.67],[-99.66,18.66],[-99.78,18.59],[-100.0,18.56],[-100.07,18.45],[-100.21,18.36],[-100.32,18.41],[-100.45,18.46],[-100.39,18.62],[-100.48,18.76],[-100.41,18.98],[-100.4,19.07],[-100.28,19.28],[-100.22,19.41],[-100.23,19.63],[-100.23,19.72],[-100.13,19.86],[-100.13,19.97],[-100.02,20.06],[-99.98,20.23],[-99.92,20.25],[-99.79,20.24],[-99.6,20.18],[-99.48,20.11],[-99.41,19.94],[-99.36,19.82],[-99.3,19.79],[-99.19,19.83],[-99.17,19.98],[-98.91,20.07],[-98.89,19.94],[-98.99,19.81],[-98.92,19.71],[-98.79,19.81],[-98.61,19.76],[-98.67,19.55]]]},"properties":{"name":"M\u00e9xico"},"id":"MX-MEX"},{"type":"Feature","geometry":{"type":"Polygon","coordinates":[[[-102.77,21.69],[-102.61,21.72],[-102.4,21.65],[-102.2,21.67],[-102.07,21.82],[-101.92,21.93],[-101.98,22.05],[-101.64,21.89],[-101.57,21.77],[-101.67,21.48],[-101.63,21.38],[-101.74,21.31],[-101.8,21.16],[-101.93,21.02],[-102.05,20.85],[-102.11,20.73],[-102.0,20.57],[-102.07,20.37],[-102.26,20.33],[-102.45,20.32],[-102.58,20.25],[-102.7,20.15],[-102.84,20.09],[-102.99,20.15],[-103.06,20.11],[-103.07,19.93],[-102.95,19.94],[-102.77,19.83],[-102.82,19.74],[-102.75,19.52],[-102.61,19.45],[-102.7,19.3],[-102.78,19.23],[-103.01,19.1],[-103.19,18.96],[-103.28,19.03],[-103.45,18.97],[-103.52,19.07],[-103.51,19.22],[-103.53,19.35],[-103.57,19.45],[-103.71,19.47],[-104.03,19.41],[-104.15,19.32],[-104.36,19.31],[-104.48,19.25],[-104.56,19.26],[-104.7,19.22],[-104.78,19.24],[-104.8,19.3],[-104.96,19.32],[-105.03,19.44],[-105.09,19.56],[-105.28,19.71],[-105.47,19.96],[-105.55,20.17],[-105.59,20.26],[-105.65,20.43],[-105.43,20.5],[-105.28,20.55],[-105.28,20.67],[-105.2,20.8],[-105.07,20.92],[-104.91,20.96],[-104.71,20.94],[-104.57,20.89],[-104.39,20.72],[-104.26,20.59],[-104.33,20.73],[-104.27,20.87],[-104.23,21.14],[-104.07,21.15],[-103.86,21.24],[-103.8,21.45],[-103.9,21.61],[-104.03,21.72],[-104.16,21.83],[-104.27,21.96],[-104.35,22.05],[-104.31,22.25],[-104.21,22.28],[-104.2,22.39],[-104.05,22.42],[-104.01,22.33],[-104.05,22.57],[-103.89,22.67],[-103.78,22.6],[-103.95,22.34],[-103.91,22.15],[-103.84,22.26],[-103.74,22.49],[-103.55,22.38],[-103.65,22.15],[-103.6,22.04],[-103.46,22.06],[-103.33,22.19],[-103.36,22.3],[-103.19,22.29],[-103.11,22.21],[-103.13,22.02],[-103.33,21.89],[-103.52,21.75],[-103.57,21.56],[-103.7,21.48],[-103.64,21.36],[-103.56,21.32],[-103.76,21.19],[-103.6,21.07],[-103.43,21.04],[-103.28,21.01],[-103.15,21.03],[-103.07,21.14],[-102.88,21.19],[-102.66,21.37],[-102.78,21.61],[-102.77,21.69]]]},"properties":{"name":"Jalisco"},"id":"MX-JAL"},{"type":"Feature","geometry":{"type":"Polygon","coordinates":[[[-98.54,21.41],[-98.51,21.29],[-98.33,21.19],[-98.21,21.2],[-98.11,21.06],[-98.21,20.89],[-98.31,20.87],[-98.46,20.74],[-98.51,20.5],[-98.41,20.34],[-98.18,20.53],[-98.03,20.65],[-97.94,20.59],[-98.09,20.36],[-98.2,20.24],[-98.11,20.22],[-98.13,19.99],[-98.16,19.71],[-98.29,19.68],[-98.43,19.61],[-98.61,19.57],[-98.63,19.7],[-98.7,19.82],[-98.89,19.75],[-98.96,19.77],[-98.91,19.85],[-98.88,20.07],[-99.15,19.99],[-99.18,19.86],[-99.3,19.84],[-99.36,19.73],[-99.4,19.89],[-99.43,20.02],[-99.52,20.17],[-99.76,20.23],[-99.85,20.33],[-99.76,20.57],[-99.61,20.62],[-99.51,20.71],[-99.49,20.86],[-99.4,20.97],[-99.38,21.09],[-99.26,21.13],[-99.09,21.18],[-99.04,21.29],[-98.91,21.23],[-98.72,21.23],[-98.6,21.41],[-98.54,21.41]]]},"properties":{"name":"Hidalgo"},"id":"MX-HID"},{"type":"Feature","geometry":{"type":"Polygon","coordinates":[[[-99.46,18.66],[-99.45,18.57],[-99.3,18.47],[-98.97,18.35],[-98.87,18.23],[-98.71,18.16],[-98.66,18.06],[-98.55,18.01],[-98.44,18.01],[-98.25,17.91],[-98.31,17.66],[-98.19,17.3],[-98.14,17.14],[-98.1,16.99],[-98.04,16.82],[-98.14,16.75],[-98.33,16.56],[-98.45,16.39],[-98.66,16.43],[-98.81,16.56],[-98.98,16.56],[-99.55,16.69],[-99.84,16.8],[-99.89,16.84],[-99.99,16.91],[-100.4,17.05],[-100.83,17.2],[-101.07,17.32],[-101.28,17.46],[-101.48,17.6],[-101.64,17.67],[-101.75,17.79],[-101.8,17.88],[-102.13,17.95],[-102.18,18.14],[-102.04,18.22],[-101.92,18.26],[-101.9,18.4],[-101.85,18.56],[-101.76,18.59],[-101.63,18.58],[-101.42,18.5],[-101.22,18.53],[-101.06,18.5],[-100.96,18.4],[-100.8,18.41],[-100.68,18.31],[-100.68,18.42],[-100.78,18.74],[-100.71,18.84],[-100.59,18.89],[-100.44,19.04],[-100.41,18.98],[-100.48,18.76],[-100.39,18.62],[-100.45,18.46],[-100.32,18.41],[-100.21,18.36],[-100.07,18.45],[-100.0,18.56],[-99.78,18.59],[-99.66,18.66],[-99.61,18.67],[-99.46,18.66]]]},"properties":{"name":"Guerrero"},"id":"MX-GRO"},{"type":"Feature","geometry":{"type":"Polygon","coordinates":[[[-99.78,21.51],[-99.8,21.38],[-99.71,21.28],[-99.82,21.16],[-100.0,21.2],[-100.08,21.02],[-100.15,20.94],[-100.35,20.91],[-100.53,20.9],[-100.58,20.68],[-100.51,20.48],[-100.36,20.3],[-100.35,20.16],[-100.39,20.01],[-100.55,19.93],[-100.63,19.96],[-100.98,19.97],[-101.11,20.04],[-101.23,19.99],[-101.42,20.04],[-101.44,20.23],[-101.43,20.29],[-101.56,20.32],[-101.76,20.2],[-101.91,20.19],[-101.97,20.29],[-102.02,20.35],[-102.05,20.47],[-101.99,20.62],[-102.13,20.78],[-102.0,20.91],[-101.87,21.11],[-101.75,21.26],[-101.68,21.31],[-101.64,21.45],[-101.61,21.72],[-101.56,21.84],[-101.48,21.86],[-101.26,21.79],[-101.03,21.73],[-100.79,21.59],[-100.51,21.56],[-100.47,21.69],[-100.3,21.65],[-100.16,21.57],[-100.07,21.47],[-99.89,21.47],[-99.78,21.51]]]},"properties":{"name":"Guanajuato"},"id":"MX-GUA"},{"type":"Feature","geometry":{"type":"Polygon","coordinates":[[[-103.87,26.75],[-103.64,26.61],[-103.49,26.39],[-103.48,26.19],[-103.42,25.88],[-103.44,25.71],[-103.55,25.52],[-103.46,25.43],[-103.57,25.34],[-103.47,25.13],[-103.34,24.94],[-103.21,24.83],[-103.02,24.8],[-102.91,24.81],[-102.76,25.02],[-102.7,24.94],[-102.6,24.84],[-102.61,24.65],[-102.58,24.48],[-102.71,24.41],[-102.9,24.38],[-103.09,24.44],[-103.35,24.44],[-103.5,24.39],[-103.69,24.17],[-103.89,24.06],[-103.86,23.88],[-103.82,23.63],[-104.01,23.45],[-104.08,23.13],[-104.17,22.97],[-104.14,22.65],[-104.32,22.52],[-104.48,22.36],[-104.56,22.34],[-104.73,22.51],[-104.85,22.59],[-104.96,22.47],[-105.04,22.66],[-104.9,22.81],[-105.0,22.92],[-105.16,22.97],[-105.31,22.95],[-105.48,23.13],[-105.62,23.11],[-105.7,23.29],[-105.74,23.46],[-105.79,23.62],[-105.94,23.82],[-106.0,24.05],[-106.09,24.21],[-106.16,24.3],[-106.42,24.43],[-106.54,24.33],[-106.67,24.31],[-106.76,24.42],[-106.83,24.57],[-106.95,24.75],[-107.11,24.84],[-107.21,25.03],[-107.24,25.3],[-107.24,25.54],[-107.13,25.68],[-107.08,25.75],[-106.98,25.67],[-106.83,25.64],[-106.67,25.68],[-106.52,25.91],[-106.52,26.1],[-106.48,26.22],[-106.42,26.28],[-106.29,26.4],[-106.31,26.49],[-106.25,26.69],[-106.17,26.82],[-106.02,26.78],[-105.89,26.67],[-105.77,26.63],[-105.6,26.55],[-105.48,26.49],[-105.34,26.49],[-105.21,26.52],[-105.11,26.52],[-104.86,26.42],[-104.67,26.44],[-104.59,26.63],[-104.46,26.71],[-104.45,26.76],[-104.37,26.79],[-104.19,26.76],[-104.0,26.78],[-103.87,26.75]]]},"properties":{"name":"Durango"},"id":"MX-DUR"},{"type":"Feature","geometry":{"type":"Polygon","coordinates":[[[-98.87,19.07],[-99.06,19.07],[-99.24,19.09],[-99.33,19.27],[-99.2,19.37],[-99.07,19.53],[-98.99,19.35],[-98.91,19.24],[-98.86,19.13],[-98.87,19.07]]]},"properties":{"name":"Ciudad de M\u00e9xico"},"id":"MX-CMX"},{"type":"Feature","geometry":{"type":"Polygon","coordinates":[[[-103.49,18.96],[-103.63,18.89],[-103.66,18.79],[-103.86,18.79],[-104.1,18.93],[-104.33,19.05],[-104.37,19.12],[-104.52,19.14],[-104.64,19.2],[-104.51,19.26],[-104.42,19.31],[-104.25,19.33],[-104.08,19.36],[-103.9,19.4],[-103.61,19.56],[-103.57,19.39],[-103.5,19.3],[-103.5,19.14],[-103.49,19.0],[-103.49,18.96]]]},"properties":{"name":"Colima"},"id":"MX-COL"},{"type":"Feature","geometry":{"type":"Polygon","coordinates":[[[-99.84,27.77],[-100.01,27.67],[-100.23,27.7],[-100.43,27.63],[-100.51,27.4],[-100.68,27.36],[-100.84,27.28],[-100.76,27.01],[-100.69,27.12],[-100.61,27.01],[-100.62,26.84],[-100.69,26.74],[-100.94,26.64],[-101.14,26.54],[-101.26,26.38],[-100.95,26.1],[-100.83,25.97],[-100.85,25.75],[-100.65,25.65],[-100.58,25.48],[-100.39,25.36],[-100.27,25.31],[-100.3,25.2],[-100.52,25.23],[-100.68,25.28],[-100.8,25.13],[-100.77,24.93],[-100.86,24.87],[-100.82,24.72],[-100.83,24.55],[-100.95,24.53],[-101.15,24.6],[-101.28,24.76],[-101.49,24.76],[-101.64,24.74],[-101.74,24.85],[-101.96,25.04],[-102.25,25.12],[-102.55,25.13],[-102.75,25.09],[-102.89,24.92],[-102.9,24.76],[-103.13,24.8],[-103.28,24.89],[-103.36,25.05],[-103.53,25.23],[-103.55,25.41],[-103.47,25.49],[-103.49,25.63],[-103.4,25.78],[-103.45,26.01],[-103.51,26.28],[-103.55,26.53],[-103.72,26.7],[-103.94,26.83],[-104.01,26.96],[-103.85,27.02],[-103.93,27.3],[-104.0,27.56],[-104.02,27.82],[-104.03,27.93],[-103.94,27.98],[-103.93,28.05],[-103.87,28.16],[-103.76,28.35],[-103.7,28.53],[-103.56,28.63],[-103.47,28.78],[-103.47,28.87],[-103.39,29.02],[-103.19,28.98],[-103.09,29.06],[-103.0,29.18],[-102.89,29.21],[-102.89,29.29],[-102.85,29.37],[-102.82,29.48],[-102.77,29.6],[-102.7,29.69],[-102.57,29.76],[-102.43,29.78],[-102.32,29.88],[-102.18,29.84],[-102.0,29.81],[-101.75,29.78],[-101.57,29.77],[-101.51,29.76],[-101.4,29.73],[-101.32,29.66],[-101.28,29.59],[-101.26,29.53],[-101.15,29.48],[-100.94,29.33],[-100.77,29.19],[-100.68,29.11],[-100.65,28.95],[-100.58,28.85],[-100.53,28.76],[-100.45,28.64],[-100.39,28.51],[-100.34,28.43],[-100.25,28.24],[-100.14,28.17],[-100.02,28.07],[-99.94,27.95],[-99.88,27.84],[-99.84,27.77]]]},"properties":{"name":"Coahuila"},"id":"MX-COA"},{"type":"Feature","geometry":{"type":"Polygon","coordinates":[[[-103.39,29.02],[-103.47,28.87],[-103.47,28.78],[-103.56,28.63],[-103.7,28.53],[-103.76,28.35],[-103.87,28.16],[-103.93,28.05],[-103.94,27.98],[-104.03,27.93],[-104.02,27.82],[-104.0,27.56],[-103.93,27.3],[-103.85,27.02],[-104.01,26.96],[-103.94,26.83],[-103.97,26.78],[-104.16,26.74],[-104.31,26.78],[-104.47,26.78],[-104.41,26.71],[-104.53,26.65],[-104.66,26.47],[-104.83,26.41],[-105.01,26.53],[-105.21,26.56],[-105.32,26.47],[-105.44,26.48],[-105.56,26.54],[-105.71,26.58],[-105.86,26.66],[-105.99,26.76],[-106.14,26.84],[-106.25,26.75],[-106.31,26.55],[-106.34,26.42],[-106.39,26.31],[-106.46,26.24],[-106.5,26.14],[-106.53,25.94],[-106.59,25.74],[-106.81,25.6],[-106.95,25.69],[-107.05,25.75],[-107.24,25.8],[-107.32,25.98],[-107.57,26.12],[-107.78,26.22],[-107.93,26.52],[-108.0,26.66],[-107.99,26.84],[-108.1,26.92],[-108.13,27.04],[-108.4,27.05],[-108.6,27.07],[-108.59,27.14],[-108.56,27.36],[-108.67,27.61],[-108.8,27.75],[-108.81,27.92],[-108.98,28.07],[-109.02,28.21],[-108.83,28.33],[-108.65,28.31],[-108.51,28.41],[-108.66,28.52],[-108.68,28.67],[-108.64,28.89],[-108.62,28.99],[-108.57,29.13],[-108.5,29.21],[-108.5,29.44],[-108.47,29.56],[-108.5,29.8],[-108.54,29.9],[-108.48,30.15],[-108.5,30.27],[-108.55,30.47],[-108.62,30.61],[-108.64,30.73],[-108.7,30.86],[-108.69,30.93],[-108.68,31.09],[-108.73,31.29],[-108.21,31.33],[-106.53,31.77],[-106.31,31.63],[-106.2,31.46],[-106.08,31.4],[-105.95,31.33],[-105.87,31.29],[-105.71,31.14],[-105.58,31.05],[-105.49,30.94],[-105.36,30.85],[-105.22,30.81],[-105.11,30.73],[-105.01,30.69],[-104.9,30.57],[-104.86,30.39],[-104.76,30.3],[-104.71,30.21],[-104.69,30.1],[-104.68,29.95],[-104.61,29.82],[-104.55,29.73],[-104.4,29.57],[-104.27,29.52],[-104.17,29.39],[-103.97,29.3],[-103.78,29.25],[-103.61,29.16],[-103.49,29.09],[-103.39,29.02]]]},"properties":{"name":"Chihuahua"},"id":"MX-CHH"},{"type":"Feature","geometry":{"type":"MultiPolygon","coordinates":[[[[-94.11,16.05],[-94.1,16.08],[-94.09,16.09],[-94.06,16.07],[-94.06,16.05],[-94.11,16.05]]],[[[-94.12,16.22],[-94.16,16.49],[-94.06,16.77],[-93.92,17.0],[-93.87,17.15],[-93.7,17.29],[-93.51,17.46],[-93.4,17.62],[-93.35,17.87],[-93.28,17.95],[-93.15,17.92],[-92.99,17.87],[-93.05,17.72],[-92.98,17.61],[-92.9,17.5],[-92.82,17.43],[-92.73,17.36],[-92.44,17.57],[-92.2,17.72],[-92.18,17.84],[-92.02,17.84],[-91.92,17.85],[-91.78,17.85],[-91.72,17.71],[-91.61,17.57],[-91.62,17.45],[-91.46,17.39],[-91.41,17.25],[-91.36,17.2],[-91.28,17.14],[-91.17,17.02],[-91.06,16.9],[-90.92,16.82],[-90.8,16.77],[-90.7,16.7],[-90.65,16.59],[-90.61,16.52],[-90.52,16.45],[-90.41,16.42],[-90.43,16.31],[-90.45,16.21],[-90.45,16.11],[-91.42,16.08],[-92.08,15.49],[-92.08,15.04],[-92.15,14.94],[-92.17,14.75],[-92.18,14.6],[-92.35,14.65],[-92.49,14.78],[-92.85,15.18],[-93.16,15.44],[-93.69,15.86],[-93.94,15.99],[-93.86,16.0],[-93.94,16.09],[-94.09,16.12],[-94.12,16.22]]]]},"properties":{"name":"Chiapas"},"id":"MX-CHP"},{"type":"Feature","geometry":{"type":"MultiPolygon","coordinates":[[[[-91.53,18.78],[-91.6,18.74],[-91.69,18.69],[-91.79,18.63],[-91.84,18.66],[-91.64,18.73],[-91.53,18.78]]],[[[-90.38,20.8],[-90.23,20.51],[-90.15,20.44],[-90.05,20.44],[-89.96,20.39],[-89.87,20.28],[-89.76,20.09],[-89.61,20.0],[-89.46,19.8],[-89.4,19.62],[-89.15,19.42],[-89.02,19.16],[-89.07,19.0],[-89.11,18.68],[-89.08,18.51],[-89.05,18.37],[-89.13,18.06],[-89.73,17.82],[-90.98,17.81],[-91.17,17.92],[-91.29,18.01],[-91.41,18.05],[-91.6,18.02],[-91.66,17.92],[-91.86,17.93],[-91.99,18.03],[-92.14,18.17],[-92.2,18.29],[-92.27,18.39],[-92.42,18.51],[-92.34,18.67],[-91.95,18.69],[-91.88,18.57],[-91.97,18.58],[-91.99,18.52],[-91.93,18.57],[-91.86,18.53],[-91.64,18.45],[-91.49,18.5],[-91.29,18.62],[-91.24,18.73],[-91.37,18.79],[-91.32,18.91],[-91.43,18.83],[-91.45,18.83],[-91.13,19.03],[-90.86,19.22],[-90.72,19.37],[-90.71,19.56],[-90.71,19.68],[-90.56,19.83],[-90.47,20.0],[-90.48,20.11],[-90.49,20.33],[-90.5,20.5],[-90.44,20.71],[-90.38,20.8]]]]},"properties":{"name":"Campeche"},"id":"MX-CAM"},{"type":"Feature","geometry":{"type":"MultiPolygon","coordinates":[[[[-114.74,18.37],[-114.72,18.37],[-114.69,18.37],[-114.7,18.34],[-114.73,18.35],[-114.75,18.34],[-114.76,18.37],[-114.74,18.37]]],[[[-110.8,19.34],[-110.79,19.31],[-110.81,19.29],[-110.82,19.31],[-110.8,19.34]]],[[[-110.69,25.31],[-110.71,25.27],[-110.73,25.26],[-110.73,25.29],[-110.71,25.31],[-110.69,25.31]]],[[[-115.22,27.9],[-115.16,27.87],[-115.17,27.85],[-115.22,27.9]]],[[[-112.13,25.27],[-112.16,25.06],[-112.19,24.96],[-112.2,24.87],[-112.17,24.78],[-112.12,24.69],[-112.06,24.55],[-112.13,24.62],[-112.14,24.67],[-112.23,24.79],[-112.21,25.0],[-112.13,25.27]]],[[[-110.77,25.71],[-110.76,25.6],[-110.79,25.61],[-110.81,25.66],[-110.79,25.69],[-110.77,25.71]]],[[[-111.04,25.71],[-111.02,25.69],[-111.01,25.67],[-111.04,25.66],[-111.06,25.71],[-111.04,25.71]]],[[[-114.15,27.95],[-112.79,27.94],[-112.7,27.75],[-112.6,27.67],[-112.46,27.6],[-112.33,27.52],[-112.3,27.39],[-112.23,27.3],[-112.11,27.14],[-111.95,27.1],[-112.02,26.98],[-111.91,26.87],[-111.89,26.76],[-111.81,26.63],[-111.68,26.59],[-111.82,26.77],[-111.75,26.85],[-111.56,26.7],[-111.56,26.55],[-111.47,26.46],[-111.39,26.34],[-111.38,26.22],[-111.32,26.1],[-111.36,25.96],[-111.31,25.81],[-111.22,25.69],[-111.12,25.53],[-111.03,25.46],[-110.95,25.27],[-110.88,25.13],[-110.79,25.04],[-110.69,24.87],[-110.68,24.74],[-110.74,24.63],[-110.69,24.4],[-110.63,24.29],[-110.48,24.19],[-110.38,24.15],[-110.39,24.11],[-110.3,24.18],[-110.3,24.35],[-110.18,24.25],[-110.07,24.2],[-109.93,24.03],[-109.8,24.02],[-109.74,23.84],[-109.7,23.69],[-109.59,23.62],[-109.47,23.55],[-109.43,23.42],[-109.44,23.27],[-109.58,23.08],[-109.71,23.01],[-109.82,22.93],[-109.96,22.87],[-110.11,23.05],[-110.2,23.36],[-110.3,23.53],[-110.54,23.67],[-110.84,23.94],[-111.01,24.07],[-111.25,24.23],[-111.52,24.41],[-111.61,24.44],[-111.7,24.54],[-111.82,24.57],[-111.94,24.76],[-112.08,24.76],[-112.12,24.88],[-112.14,24.95],[-112.14,24.81],[-112.16,24.91],[-112.15,24.98],[-112.16,25.07],[-112.1,25.27],[-112.08,25.44],[-112.06,25.61],[-112.1,25.75],[-112.16,25.9],[-112.28,26.06],[-112.39,26.23],[-112.48,26.24],[-112.68,26.31],[-112.96,26.52],[-113.07,26.66],[-113.15,26.78],[-113.24,26.78],[-113.13,26.89],[-113.2,26.92],[-113.25,26.84],[-113.34,26.79],[-113.48,26.82],[-113.55,26.72],[-113.67,26.78],[-113.8,26.93],[-114.0,26.97],[-114.14,27.12],[-114.34,27.16],[-114.44,27.18],[-114.49,27.35],[-114.6,27.48],[-114.74,27.52],[-114.85,27.68],[-114.95,27.71],[-115.05,27.82],[-114.97,27.83],[-114.79,27.82],[-114.67,27.79],[-114.53,27.79],[-114.38,27.81],[-114.34,27.87],[-114.31,27.78],[-114.22,27.69],[-114.05,27.68],[-113.9,27.55],[-113.89,27.62],[-113.89,27.74],[-114.0,27.79],[-114.17,27.77],[-114.15,27.95]]],[[[-110.36,24.53],[-110.31,24.46],[-110.35,24.43],[-110.38,24.51],[-110.36,24.53]]],[[[-113.23,26.73],[-113.18,26.72],[-113.15,26.69],[-113.15,26.66],[-113.18,26.69],[-113.26,26.7],[-113.27,26.71],[-113.23,26.73]]],[[[-111.99,24.53],[-111.84,24.5],[-111.72,24.39],[-111.78,24.37],[-111.99,24.51],[-111.99,24.53]]],[[[-109.93,24.37],[-109.82,24.21],[-109.89,24.19],[-109.93,24.37]]],[[[-111.06,26.07],[-111.12,25.98],[-111.2,25.85],[-111.22,25.87],[-111.18,26.04],[-111.06,26.07]]],[[[-112.09,25.68],[-112.09,25.63],[-112.09,25.6],[-112.09,25.51],[-112.11,25.51],[-112.1,25.58],[-112.1,25.68],[-112.09,25.68]]],[[[-110.71,25.11],[-110.57,24.98],[-110.64,24.93],[-110.72,25.05],[-110.71,25.11]]],[[[-110.39,24.59],[-110.36,24.54],[-110.38,24.53],[-110.41,24.54],[-110.41,24.57],[-110.39,24.59]]],[[[-111.89,27.46],[-111.87,27.45],[-111.86,27.43],[-111.9,27.43],[-111.89,27.46]]],[[[-112.09,27.26],[-112.05,27.22],[-112.04,27.21],[-112.06,27.18],[-112.08,27.19],[-112.09,27.22],[-112.1,27.24],[-112.09,27.26]]],[[[-110.99,18.87],[-110.92,18.73],[-111.02,18.75],[-111.01,18.85],[-110.99,18.87]]]]},"properties":{"name":"Baja California Sur"},"id":"MX-BCS"},{"type":"Feature","geometry":{"type":"MultiPolygon","coordinates":[[[[-112.89,28.68],[-112.86,28.67],[-112.8,28.64],[-112.75,28.59],[-112.77,28.58],[-112.8,28.61],[-112.87,28.65],[-112.89,28.68]]],[[[-113.56,29.55],[-113.43,29.49],[-113.35,29.38],[-113.21,29.28],[-113.15,29.09],[-113.12,28.99],[-113.25,29.07],[-113.37,29.19],[-113.5,29.28],[-113.59,29.44],[-113.56,29.55]]],[[[-115.22,28.38],[-115.17,28.22],[-115.18,28.03],[-115.26,28.07],[-115.36,28.11],[-115.25,28.32],[-115.22,28.38]]],[[[-114.12,27.95],[-114.23,27.92],[-114.2,28.0],[-114.15,28.02],[-114.12,27.95]]],[[[-112.55,28.73],[-112.54,28.71],[-112.55,28.67],[-112.6,28.67],[-112.61,28.71],[-112.61,28.73],[-112.55,28.73]]],[[[-114.81,32.5],[-114.94,32.44],[-114.98,32.34],[-114.98,32.21],[-115.01,32.02],[-114.98,31.92],[-114.8,31.82],[-114.78,31.62],[-114.85,31.44],[-114.89,31.26],[-114.87,31.09],[-114.83,31.0],[-114.71,30.84],[-114.71,30.72],[-114.65,30.56],[-114.63,30.42],[-114.64,30.27],[-114.63,30.12],[-114.56,30.01],[-114.43,29.91],[-114.36,29.77],[-114.25,29.76],[-114.15,29.69],[-113.98,29.57],[-113.84,29.46],[-113.72,29.36],[-113.65,29.22],[-113.57,29.12],[-113.54,28.96],[-113.47,28.91],[-113.43,28.95],[-113.37,28.87],[-113.26,28.84],[-113.16,28.66],[-113.1,28.51],[-112.94,28.46],[-112.84,28.42],[-112.87,28.29],[-112.8,28.08],[-112.77,28.0],[-112.77,27.88],[-114.09,27.97],[-114.04,28.02],[-114.11,28.12],[-114.11,28.24],[-114.05,28.47],[-114.1,28.55],[-114.15,28.61],[-114.27,28.66],[-114.34,28.76],[-114.42,28.88],[-114.55,28.93],[-114.61,29.06],[-114.73,29.14],[-114.85,29.25],[-114.98,29.38],[-115.15,29.42],[-115.3,29.54],[-115.51,29.62],[-115.68,29.74],[-115.7,29.89],[-115.78,30.09],[-115.8,30.28],[-115.94,30.41],[-116.04,30.46],[-116.03,30.7],[-116.1,30.82],[-116.22,30.91],[-116.34,30.97],[-116.37,31.25],[-116.48,31.38],[-116.61,31.5],[-116.65,31.59],[-116.71,31.71],[-116.62,31.75],[-116.63,31.86],[-116.76,31.91],[-116.86,31.99],[-116.91,32.17],[-117.02,32.27],[-117.13,32.49],[-116.01,32.62],[-114.75,32.66],[-114.8,32.55],[-114.81,32.5]]],[[[-118.26,29.19],[-118.23,29.07],[-118.23,28.92],[-118.29,28.97],[-118.37,29.08],[-118.3,29.17],[-118.26,29.19]]]]},"properties":{"name":"Baja California"},"id":"MX-BCN"},{"type":"Feature","geometry":{"type":"Polygon","coordinates":[[[-102.77,21.69],[-102.87,21.82],[-102.71,22.06],[-102.65,22.22],[-102.48,22.3],[-102.31,22.42],[-102.07,22.24],[-101.99,22.07],[-101.97,21.97],[-101.98,21.86],[-102.17,21.68],[-102.37,21.62],[-102.53,21.72],[-102.72,21.72],[-102.77,21.69]]]},"properties":{"name":"Aguascalientes"},"id":"MX-AGU"}]}